{
"type": "FeatureCollection",
"name": "candidate_zones_real",
"crs": { "type": "name", "properties": { "name": "urn:ogc:def:crs:OGC:1.3:CRS84" } },
"features": [
{ "type": "Feature", "properties": { "HYRIV_ID": 20447392, "NEXT_DOWN": 20446064, "MAIN_RIV": 20323928, "LENGTH_KM": 5.68, "DIST_DN_KM": 1011.8, "DIST_UP_KM": 13.1, "CATCH_SKM": 15.58, "UPLAND_SKM": 40.1, "ENDORHEIC": 0, "DIS_AV_CMS": 0.958, "ORD_STRA": 2, "ORD_CLAS": 4, "ORD_FLOW": 7, "HYBAS_L12": 2120499990, "zone": "Z1" }, "geometry": { "type": "LineString", "coordinates": [ [ 7.893749999999471, 47.264583333332801 ], [ 7.902083333332769, 47.272916666666127 ], [ 7.902083333332769, 47.277083333332776 ], [ 7.906249999999517, 47.281249999999481 ], [ 7.906249999999517, 47.293749999999456 ], [ 7.897916666666106, 47.302083333332767 ], [ 7.897916666666106, 47.30624999999943 ], [ 7.902083333332769, 47.310416666666136 ] ] } },
{ "type": "Feature", "properties": { "HYRIV_ID": 20447619, "NEXT_DOWN": 20447392, "MAIN_RIV": 20323928, "LENGTH_KM": 2.22, "DIST_DN_KM": 1017.3, "DIST_UP_KM": 5.3, "CATCH_SKM": 8.02, "UPLAND_SKM": 8.0, "ENDORHEIC": 0, "DIS_AV_CMS": 0.194, "ORD_STRA": 1, "ORD_CLAS": 5, "ORD_FLOW": 7, "HYBAS_L12": 2120499990, "zone": "Z1" }, "geometry": { "type": "LineString", "coordinates": [ [ 7.916666666666174, 47.256249999999447 ], [ 7.906249999999517, 47.256249999999447 ], [ 7.897916666666106, 47.264583333332801 ], [ 7.893749999999471, 47.264583333332801 ] ] } },
{ "type": "Feature", "properties": { "HYRIV_ID": 20448438, "NEXT_DOWN": 20447392, "MAIN_RIV": 20323928, "LENGTH_KM": 4.5, "DIST_DN_KM": 1017.3, "DIST_UP_KM": 7.5, "CATCH_SKM": 16.47, "UPLAND_SKM": 16.5, "ENDORHEIC": 0, "DIS_AV_CMS": 0.399, "ORD_STRA": 1, "ORD_CLAS": 4, "ORD_FLOW": 7, "HYBAS_L12": 2120499990, "zone": "Z1" }, "geometry": { "type": "LineString", "coordinates": [ [ 7.897916666666106, 47.224999999999461 ], [ 7.897916666666106, 47.231249999999456 ], [ 7.893749999999471, 47.235416666666104 ], [ 7.893749999999471, 47.264583333332801 ] ] } },
{ "type": "Feature", "properties": { "HYRIV_ID": 20450127, "NEXT_DOWN": 20449905, "MAIN_RIV": 20323928, "LENGTH_KM": 1.12, "DIST_DN_KM": 1029.7, "DIST_UP_KM": 21.3, "CATCH_SKM": 0.73, "UPLAND_SKM": 169.5, "ENDORHEIC": 0, "DIS_AV_CMS": 4.784, "ORD_STRA": 3, "ORD_CLAS": 4, "ORD_FLOW": 6, "HYBAS_L12": 2121164680, "zone": "Z2" }, "geometry": { "type": "LineString", "coordinates": [ [ 7.997916666666185, 47.168749999999456 ], [ 7.98958333333286, 47.17708333333281 ] ] } },
{ "type": "Feature", "properties": { "HYRIV_ID": 20450128, "NEXT_DOWN": 20450127, "MAIN_RIV": 20323928, "LENGTH_KM": 6.74, "DIST_DN_KM": 1030.8, "DIST_UP_KM": 9.6, "CATCH_SKM": 24.66, "UPLAND_SKM": 24.7, "ENDORHEIC": 0, "DIS_AV_CMS": 0.67, "ORD_STRA": 1, "ORD_CLAS": 5, "ORD_FLOW": 7, "HYBAS_L12": 2121164680, "zone": "Z2" }, "geometry": { "type": "LineString", "coordinates": [ [ 8.070833333332786, 47.172916666666104 ], [ 8.052083333332831, 47.172916666666104 ], [ 8.047916666666168, 47.17708333333281 ], [ 8.043749999999505, 47.17708333333281 ], [ 8.039583333332843, 47.18124999999943 ], [ 8.031249999999432, 47.172916666666104 ], [ 8.00208333333282, 47.172916666666104 ], [ 7.997916666666185, 47.168749999999456 ] ] } },
{ "type": "Feature", "properties": { "HYRIV_ID": 20450449, "NEXT_DOWN": 20450127, "MAIN_RIV": 20323928, "LENGTH_KM": 1.58, "DIST_DN_KM": 1030.7, "DIST_UP_KM": 20.3, "CATCH_SKM": 2.77, "UPLAND_SKM": 144.1, "ENDORHEIC": 0, "DIS_AV_CMS": 4.096, "ORD_STRA": 3, "ORD_CLAS": 4, "ORD_FLOW": 6, "HYBAS_L12": 2121164680, "zone": "Z2" }, "geometry": { "type": "LineString", "coordinates": [ [ 8.006249999999483, 47.156249999999481 ], [ 7.997916666666185, 47.164583333332793 ], [ 7.997916666666185, 47.168749999999456 ] ] } },
{ "type": "Feature", "properties": { "HYRIV_ID": 20451051, "NEXT_DOWN": 20450449, "MAIN_RIV": 20323928, "LENGTH_KM": 4.69, "DIST_DN_KM": 1032.2, "DIST_UP_KM": 16.2, "CATCH_SKM": 11.39, "UPLAND_SKM": 51.3, "ENDORHEIC": 0, "DIS_AV_CMS": 1.483, "ORD_STRA": 2, "ORD_CLAS": 5, "ORD_FLOW": 6, "HYBAS_L12": 2121165040, "zone": "Z2" }, "geometry": { "type": "LineString", "coordinates": [ [ 8.052083333332831, 47.135416666666138 ], [ 8.043749999999505, 47.135416666666138 ], [ 8.039583333332843, 47.139583333332801 ], [ 8.03541666666618, 47.139583333332801 ], [ 8.027083333332797, 47.147916666666113 ], [ 8.018749999999471, 47.147916666666113 ], [ 8.010416666666146, 47.156249999999481 ], [ 8.006249999999483, 47.156249999999481 ] ] } },
{ "type": "Feature", "properties": { "HYRIV_ID": 20451052, "NEXT_DOWN": 20451051, "MAIN_RIV": 20323928, "LENGTH_KM": 1.59, "DIST_DN_KM": 1037.0, "DIST_UP_KM": 3.9, "CATCH_SKM": 6.13, "UPLAND_SKM": 6.1, "ENDORHEIC": 0, "DIS_AV_CMS": 0.173, "ORD_STRA": 1, "ORD_CLAS": 6, "ORD_FLOW": 7, "HYBAS_L12": 2121165040, "zone": "Z2" }, "geometry": { "type": "LineString", "coordinates": [ [ 8.066666666666208, 47.14374999999945 ], [ 8.060416666666214, 47.14374999999945 ], [ 8.052083333332831, 47.135416666666138 ] ] } },
{ "type": "Feature", "properties": { "HYRIV_ID": 20451292, "NEXT_DOWN": 20450449, "MAIN_RIV": 20323928, "LENGTH_KM": 3.44, "DIST_DN_KM": 1032.3, "DIST_UP_KM": 18.7, "CATCH_SKM": 6.57, "UPLAND_SKM": 90.0, "ENDORHEIC": 0, "DIS_AV_CMS": 2.54, "ORD_STRA": 3, "ORD_CLAS": 4, "ORD_FLOW": 6, "HYBAS_L12": 2121165040, "zone": "Z2" }, "geometry": { "type": "LineString", "coordinates": [ [ 7.997916666666185, 47.127083333332784 ], [ 7.997916666666185, 47.139583333332801 ], [ 8.00208333333282, 47.14374999999945 ], [ 8.00208333333282, 47.147916666666113 ], [ 8.006249999999483, 47.152083333332818 ], [ 8.006249999999483, 47.156249999999481 ] ] } },
{ "type": "Feature", "properties": { "HYRIV_ID": 20451412, "NEXT_DOWN": 20451292, "MAIN_RIV": 20323928, "LENGTH_KM": 0.56, "DIST_DN_KM": 1035.9, "DIST_UP_KM": 9.6, "CATCH_SKM": 0.29, "UPLAND_SKM": 42.4, "ENDORHEIC": 0, "DIS_AV_CMS": 1.217, "ORD_STRA": 2, "ORD_CLAS": 5, "ORD_FLOW": 6, "HYBAS_L12": 2121165040, "zone": "Z2" }, "geometry": { "type": "LineString", "coordinates": [ [ 8.00208333333282, 47.122916666666121 ], [ 7.997916666666185, 47.127083333332784 ] ] } },
{ "type": "Feature", "properties": { "HYRIV_ID": 20451628, "NEXT_DOWN": 20451412, "MAIN_RIV": 20323928, "LENGTH_KM": 1.44, "DIST_DN_KM": 1036.5, "DIST_UP_KM": 8.1, "CATCH_SKM": 1.61, "UPLAND_SKM": 26.5, "ENDORHEIC": 0, "DIS_AV_CMS": 0.763, "ORD_STRA": 2, "ORD_CLAS": 6, "ORD_FLOW": 7, "HYBAS_L12": 2121165040, "zone": "Z2" }, "geometry": { "type": "LineString", "coordinates": [ [ 8.014583333332808, 47.114583333332767 ], [ 8.010416666666146, 47.114583333332767 ], [ 8.00208333333282, 47.122916666666121 ] ] } },
{ "type": "Feature", "properties": { "HYRIV_ID": 20451629, "NEXT_DOWN": 20451051, "MAIN_RIV": 20323928, "LENGTH_KM": 3.12, "DIST_DN_KM": 1037.0, "DIST_UP_KM": 11.4, "CATCH_SKM": 10.96, "UPLAND_SKM": 33.8, "ENDORHEIC": 0, "DIS_AV_CMS": 0.994, "ORD_STRA": 2, "ORD_CLAS": 5, "ORD_FLOW": 7, "HYBAS_L12": 2121165040, "zone": "Z2" }, "geometry": { "type": "LineString", "coordinates": [ [ 8.077083333332865, 47.114583333332767 ], [ 8.072916666666202, 47.114583333332767 ], [ 8.052083333332831, 47.135416666666138 ] ] } },
{ "type": "Feature", "properties": { "HYRIV_ID": 20451630, "NEXT_DOWN": 20451629, "MAIN_RIV": 20323928, "LENGTH_KM": 0.47, "DIST_DN_KM": 1039.9, "DIST_UP_KM": 3.4, "CATCH_SKM": 4.82, "UPLAND_SKM": 4.8, "ENDORHEIC": 0, "DIS_AV_CMS": 0.14, "ORD_STRA": 1, "ORD_CLAS": 6, "ORD_FLOW": 7, "HYBAS_L12": 2121165040, "zone": "Z2" }, "geometry": { "type": "LineString", "coordinates": [ [ 8.083333333332831, 47.114583333332767 ], [ 8.077083333332865, 47.114583333332767 ] ] } },
{ "type": "Feature", "properties": { "HYRIV_ID": 20451759, "NEXT_DOWN": 20451760, "MAIN_RIV": 20323928, "LENGTH_KM": 1.72, "DIST_DN_KM": 1039.0, "DIST_UP_KM": 4.1, "CATCH_SKM": 5.99, "UPLAND_SKM": 6.0, "ENDORHEIC": 0, "DIS_AV_CMS": 0.162, "ORD_STRA": 1, "ORD_CLAS": 5, "ORD_FLOW": 7, "HYBAS_L12": 2121165040, "zone": "Z2" }, "geometry": { "type": "LineString", "coordinates": [ [ 7.954166666666168, 47.12083333333279 ], [ 7.960416666666163, 47.114583333332767 ], [ 7.964583333332826, 47.114583333332767 ], [ 7.968749999999488, 47.110416666666104 ] ] } },
{ "type": "Feature", "properties": { "HYRIV_ID": 20451760, "NEXT_DOWN": 20451292, "MAIN_RIV": 20323928, "LENGTH_KM": 3.19, "DIST_DN_KM": 1035.9, "DIST_UP_KM": 15.1, "CATCH_SKM": 6.28, "UPLAND_SKM": 41.1, "ENDORHEIC": 0, "DIS_AV_CMS": 1.145, "ORD_STRA": 2, "ORD_CLAS": 4, "ORD_FLOW": 6, "HYBAS_L12": 2121165040, "zone": "Z2" }, "geometry": { "type": "LineString", "coordinates": [ [ 7.968749999999488, 47.110416666666104 ], [ 7.977083333332786, 47.118749999999459 ], [ 7.981249999999449, 47.118749999999459 ], [ 7.985416666666197, 47.122916666666121 ], [ 7.993749999999523, 47.122916666666121 ], [ 7.997916666666185, 47.127083333332784 ] ] } },
{ "type": "Feature", "properties": { "HYRIV_ID": 20451885, "NEXT_DOWN": 20451628, "MAIN_RIV": 20323928, "LENGTH_KM": 2.66, "DIST_DN_KM": 1037.7, "DIST_UP_KM": 6.6, "CATCH_SKM": 8.62, "UPLAND_SKM": 8.6, "ENDORHEIC": 0, "DIS_AV_CMS": 0.249, "ORD_STRA": 1, "ORD_CLAS": 7, "ORD_FLOW": 7, "HYBAS_L12": 2121165040, "zone": "Z2" }, "geometry": { "type": "LineString", "coordinates": [ [ 8.041666666666174, 47.104166666666124 ], [ 8.031249999999432, 47.114583333332767 ], [ 8.014583333332808, 47.114583333332767 ] ] } },
{ "type": "Feature", "properties": { "HYRIV_ID": 20452003, "NEXT_DOWN": 20451629, "MAIN_RIV": 20323928, "LENGTH_KM": 5.66, "DIST_DN_KM": 1040.1, "DIST_UP_KM": 8.3, "CATCH_SKM": 17.97, "UPLAND_SKM": 18.0, "ENDORHEIC": 0, "DIS_AV_CMS": 0.538, "ORD_STRA": 1, "ORD_CLAS": 5, "ORD_FLOW": 7, "HYBAS_L12": 2121165040, "zone": "Z2" }, "geometry": { "type": "LineString", "coordinates": [ [ 8.12916666666618, 47.110416666666104 ], [ 8.11458333333286, 47.110416666666104 ], [ 8.110416666666111, 47.106249999999442 ], [ 8.106249999999449, 47.106249999999442 ], [ 8.102083333332814, 47.102083333332793 ], [ 8.097916666666151, 47.106249999999442 ], [ 8.093749999999488, 47.106249999999442 ], [ 8.089583333332826, 47.102083333332793 ], [ 8.077083333332865, 47.114583333332767 ] ] } },
{ "type": "Feature", "properties": { "HYRIV_ID": 20452104, "NEXT_DOWN": 20452105, "MAIN_RIV": 20323928, "LENGTH_KM": 0.79, "DIST_DN_KM": 1040.3, "DIST_UP_KM": 3.6, "CATCH_SKM": 4.24, "UPLAND_SKM": 4.2, "ENDORHEIC": 0, "DIS_AV_CMS": 0.116, "ORD_STRA": 1, "ORD_CLAS": 5, "ORD_FLOW": 7, "HYBAS_L12": 2121165040, "zone": "Z2" }, "geometry": { "type": "LineString", "coordinates": [ [ 7.954166666666168, 47.09791666666613 ], [ 7.964583333332826, 47.09791666666613 ] ] } },
{ "type": "Feature", "properties": { "HYRIV_ID": 20452105, "NEXT_DOWN": 20451760, "MAIN_RIV": 20323928, "LENGTH_KM": 1.49, "DIST_DN_KM": 1039.0, "DIST_UP_KM": 12.0, "CATCH_SKM": 1.9, "UPLAND_SKM": 28.8, "ENDORHEIC": 0, "DIS_AV_CMS": 0.812, "ORD_STRA": 2, "ORD_CLAS": 4, "ORD_FLOW": 7, "HYBAS_L12": 2121165040, "zone": "Z2" }, "geometry": { "type": "LineString", "coordinates": [ [ 7.964583333332826, 47.09791666666613 ], [ 7.964583333332826, 47.106249999999442 ], [ 7.968749999999488, 47.110416666666104 ] ] } },
{ "type": "Feature", "properties": { "HYRIV_ID": 20452106, "NEXT_DOWN": 20451628, "MAIN_RIV": 20323928, "LENGTH_KM": 1.85, "DIST_DN_KM": 1037.8, "DIST_UP_KM": 6.8, "CATCH_SKM": 3.21, "UPLAND_SKM": 16.2, "ENDORHEIC": 0, "DIS_AV_CMS": 0.47, "ORD_STRA": 2, "ORD_CLAS": 6, "ORD_FLOW": 7, "HYBAS_L12": 2121165040, "zone": "Z2" }, "geometry": { "type": "LineString", "coordinates": [ [ 8.014583333332808, 47.09791666666613 ], [ 8.014583333332808, 47.114583333332767 ] ] } },
{ "type": "Feature", "properties": { "HYRIV_ID": 20452213, "NEXT_DOWN": 20452106, "MAIN_RIV": 20323928, "LENGTH_KM": 0.69, "DIST_DN_KM": 1039.6, "DIST_UP_KM": 3.8, "CATCH_SKM": 4.39, "UPLAND_SKM": 4.4, "ENDORHEIC": 0, "DIS_AV_CMS": 0.127, "ORD_STRA": 1, "ORD_CLAS": 7, "ORD_FLOW": 7, "HYBAS_L12": 2121165040, "zone": "Z2" }, "geometry": { "type": "LineString", "coordinates": [ [ 8.014583333332808, 47.091666666666107 ], [ 8.014583333332808, 47.09791666666613 ] ] } },
{ "type": "Feature", "properties": { "HYRIV_ID": 20452353, "NEXT_DOWN": 20452106, "MAIN_RIV": 20323928, "LENGTH_KM": 2.54, "DIST_DN_KM": 1039.8, "DIST_UP_KM": 4.8, "CATCH_SKM": 8.62, "UPLAND_SKM": 8.6, "ENDORHEIC": 0, "DIS_AV_CMS": 0.252, "ORD_STRA": 1, "ORD_CLAS": 6, "ORD_FLOW": 7, "HYBAS_L12": 2121165040, "zone": "Z2" }, "geometry": { "type": "LineString", "coordinates": [ [ 8.041666666666174, 47.089583333332776 ], [ 8.022916666666134, 47.089583333332776 ], [ 8.014583333332808, 47.09791666666613 ] ] } },
{ "type": "Feature", "properties": { "HYRIV_ID": 20452880, "NEXT_DOWN": 20451412, "MAIN_RIV": 20323928, "LENGTH_KM": 6.74, "DIST_DN_KM": 1036.3, "DIST_UP_KM": 9.2, "CATCH_SKM": 15.64, "UPLAND_SKM": 15.6, "ENDORHEIC": 0, "DIS_AV_CMS": 0.445, "ORD_STRA": 1, "ORD_CLAS": 5, "ORD_FLOW": 7, "HYBAS_L12": 2121165040, "zone": "Z2" }, "geometry": { "type": "LineString", "coordinates": [ [ 7.981249999999449, 47.066666666666102 ], [ 7.981249999999449, 47.077083333332801 ], [ 7.985416666666197, 47.08124999999945 ], [ 7.985416666666197, 47.09791666666613 ], [ 7.997916666666185, 47.110416666666104 ], [ 7.997916666666185, 47.114583333332767 ], [ 8.00208333333282, 47.118749999999459 ], [ 8.00208333333282, 47.122916666666121 ] ] } },
{ "type": "Feature", "properties": { "HYRIV_ID": 20453709, "NEXT_DOWN": 20452105, "MAIN_RIV": 20323928, "LENGTH_KM": 7.72, "DIST_DN_KM": 1040.4, "DIST_UP_KM": 10.6, "CATCH_SKM": 22.67, "UPLAND_SKM": 22.7, "ENDORHEIC": 0, "DIS_AV_CMS": 0.644, "ORD_STRA": 1, "ORD_CLAS": 4, "ORD_FLOW": 7, "HYBAS_L12": 2121165040, "zone": "Z2" }, "geometry": { "type": "LineString", "coordinates": [ [ 7.949999999999505, 47.033333333332799 ], [ 7.9562499999995, 47.039583333332779 ], [ 7.9562499999995, 47.047916666666147 ], [ 7.952083333332837, 47.05208333333281 ], [ 7.952083333332837, 47.077083333332801 ], [ 7.9562499999995, 47.08124999999945 ], [ 7.9562499999995, 47.085416666666113 ], [ 7.964583333332826, 47.093749999999424 ], [ 7.964583333332826, 47.09791666666613 ] ] } },
{ "type": "Feature", "properties": { "HYRIV_ID": 20451169, "NEXT_DOWN": 20449905, "MAIN_RIV": 20323928, "LENGTH_KM": 10.54, "DIST_DN_KM": 1029.7, "DIST_UP_KM": 25.6, "CATCH_SKM": 22.05, "UPLAND_SKM": 86.8, "ENDORHEIC": 0, "DIS_AV_CMS": 2.328, "ORD_STRA": 3, "ORD_CLAS": 3, "ORD_FLOW": 6, "HYBAS_L12": 2121164680, "zone": "Z3" }, "geometry": { "type": "LineString", "coordinates": [ [ 7.91041666666618, 47.131249999999433 ], [ 7.914583333332843, 47.135416666666138 ], [ 7.918749999999505, 47.135416666666138 ], [ 7.92291666666614, 47.139583333332801 ], [ 7.939583333332877, 47.139583333332801 ], [ 7.94374999999954, 47.135416666666138 ], [ 7.947916666666202, 47.139583333332801 ], [ 7.952083333332837, 47.139583333332801 ], [ 7.9562499999995, 47.135416666666138 ], [ 7.960416666666163, 47.139583333332801 ], [ 7.964583333332826, 47.139583333332801 ], [ 7.968749999999488, 47.14374999999945 ], [ 7.968749999999488, 47.152083333332818 ], [ 7.972916666666151, 47.156249999999481 ], [ 7.977083333332786, 47.156249999999481 ], [ 7.981249999999449, 47.16041666666613 ], [ 7.981249999999449, 47.168749999999456 ], [ 7.98958333333286, 47.17708333333281 ] ] } },
{ "type": "Feature", "properties": { "HYRIV_ID": 20451289, "NEXT_DOWN": 20451291, "MAIN_RIV": 20323928, "LENGTH_KM": 0.47, "DIST_DN_KM": 1042.1, "DIST_UP_KM": 3.1, "CATCH_SKM": 5.11, "UPLAND_SKM": 5.1, "ENDORHEIC": 0, "DIS_AV_CMS": 0.132, "ORD_STRA": 1, "ORD_CLAS": 5, "ORD_FLOW": 7, "HYBAS_L12": 2121164680, "zone": "Z3" }, "geometry": { "type": "LineString", "coordinates": [ [ 7.879166666666151, 47.127083333332784 ], [ 7.885416666666146, 47.127083333332784 ] ] } },
{ "type": "Feature", "properties": { "HYRIV_ID": 20451290, "NEXT_DOWN": 20451291, "MAIN_RIV": 20323928, "LENGTH_KM": 1.25, "DIST_DN_KM": 1042.3, "DIST_UP_KM": 4.0, "CATCH_SKM": 6.13, "UPLAND_SKM": 6.1, "ENDORHEIC": 0, "DIS_AV_CMS": 0.156, "ORD_STRA": 1, "ORD_CLAS": 4, "ORD_FLOW": 7, "HYBAS_L12": 2121164680, "zone": "Z3" }, "geometry": { "type": "LineString", "coordinates": [ [ 7.881249999999483, 47.13749999999947 ], [ 7.881249999999483, 47.131249999999433 ], [ 7.885416666666146, 47.127083333332784 ] ] } },
{ "type": "Feature", "properties": { "HYRIV_ID": 20451291, "NEXT_DOWN": 20451169, "MAIN_RIV": 20323928, "LENGTH_KM": 2.14, "DIST_DN_KM": 1040.2, "DIST_UP_KM": 6.1, "CATCH_SKM": 3.5, "UPLAND_SKM": 14.8, "ENDORHEIC": 0, "DIS_AV_CMS": 0.378, "ORD_STRA": 2, "ORD_CLAS": 4, "ORD_FLOW": 7, "HYBAS_L12": 2121164680, "zone": "Z3" }, "geometry": { "type": "LineString", "coordinates": [ [ 7.885416666666146, 47.127083333332784 ], [ 7.906249999999517, 47.127083333332784 ], [ 7.91041666666618, 47.131249999999433 ] ] } },
{ "type": "Feature", "properties": { "HYRIV_ID": 20451411, "NEXT_DOWN": 20451169, "MAIN_RIV": 20323928, "LENGTH_KM": 1.02, "DIST_DN_KM": 1040.0, "DIST_UP_KM": 15.2, "CATCH_SKM": 1.46, "UPLAND_SKM": 50.0, "ENDORHEIC": 0, "DIS_AV_CMS": 1.373, "ORD_STRA": 2, "ORD_CLAS": 3, "ORD_FLOW": 6, "HYBAS_L12": 2121164680, "zone": "Z3" }, "geometry": { "type": "LineString", "coordinates": [ [ 7.914583333332843, 47.122916666666121 ], [ 7.91041666666618, 47.127083333332784 ], [ 7.91041666666618, 47.131249999999433 ] ] } },
{ "type": "Feature", "properties": { "HYRIV_ID": 20451758, "NEXT_DOWN": 20451411, "MAIN_RIV": 20323928, "LENGTH_KM": 1.82, "DIST_DN_KM": 1041.2, "DIST_UP_KM": 6.6, "CATCH_SKM": 8.04, "UPLAND_SKM": 8.0, "ENDORHEIC": 0, "DIS_AV_CMS": 0.213, "ORD_STRA": 1, "ORD_CLAS": 4, "ORD_FLOW": 7, "HYBAS_L12": 2121164680, "zone": "Z3" }, "geometry": { "type": "LineString", "coordinates": [ [ 7.906249999999517, 47.108333333332773 ], [ 7.906249999999517, 47.114583333332767 ], [ 7.914583333332843, 47.122916666666121 ] ] } },
{ "type": "Feature", "properties": { "HYRIV_ID": 20452467, "NEXT_DOWN": 20451411, "MAIN_RIV": 20323928, "LENGTH_KM": 4.56, "DIST_DN_KM": 1041.2, "DIST_UP_KM": 14.1, "CATCH_SKM": 5.84, "UPLAND_SKM": 40.5, "ENDORHEIC": 0, "DIS_AV_CMS": 1.122, "ORD_STRA": 2, "ORD_CLAS": 3, "ORD_FLOW": 6, "HYBAS_L12": 2121164680, "zone": "Z3" }, "geometry": { "type": "LineString", "coordinates": [ [ 7.914583333332843, 47.085416666666113 ], [ 7.914583333332843, 47.093749999999424 ], [ 7.918749999999505, 47.09791666666613 ], [ 7.918749999999505, 47.110416666666104 ], [ 7.92291666666614, 47.114583333332767 ], [ 7.914583333332843, 47.122916666666121 ] ] } },
{ "type": "Feature", "properties": { "HYRIV_ID": 20452782, "NEXT_DOWN": 20452467, "MAIN_RIV": 20323928, "LENGTH_KM": 2.59, "DIST_DN_KM": 1045.8, "DIST_UP_KM": 5.5, "CATCH_SKM": 9.8, "UPLAND_SKM": 9.8, "ENDORHEIC": 0, "DIS_AV_CMS": 0.266, "ORD_STRA": 1, "ORD_CLAS": 4, "ORD_FLOW": 7, "HYBAS_L12": 2121164680, "zone": "Z3" }, "geometry": { "type": "LineString", "coordinates": [ [ 7.89166666666614, 47.070833333332807 ], [ 7.902083333332769, 47.08124999999945 ], [ 7.91041666666618, 47.08124999999945 ], [ 7.914583333332843, 47.085416666666113 ] ] } },
{ "type": "Feature", "properties": { "HYRIV_ID": 20453149, "NEXT_DOWN": 20452467, "MAIN_RIV": 20323928, "LENGTH_KM": 3.54, "DIST_DN_KM": 1045.8, "DIST_UP_KM": 9.5, "CATCH_SKM": 6.43, "UPLAND_SKM": 24.9, "ENDORHEIC": 0, "DIS_AV_CMS": 0.7, "ORD_STRA": 2, "ORD_CLAS": 3, "ORD_FLOW": 7, "HYBAS_L12": 2121164680, "zone": "Z3" }, "geometry": { "type": "LineString", "coordinates": [ [ 7.918749999999505, 47.056249999999459 ], [ 7.918749999999505, 47.068749999999433 ], [ 7.92291666666614, 47.072916666666138 ], [ 7.918749999999505, 47.077083333332801 ], [ 7.918749999999505, 47.08124999999945 ], [ 7.914583333332843, 47.085416666666113 ] ] } },
{ "type": "Feature", "properties": { "HYRIV_ID": 20453379, "NEXT_DOWN": 20453149, "MAIN_RIV": 20323928, "LENGTH_KM": 1.16, "DIST_DN_KM": 1049.2, "DIST_UP_KM": 4.2, "CATCH_SKM": 6.44, "UPLAND_SKM": 6.4, "ENDORHEIC": 0, "DIS_AV_CMS": 0.18, "ORD_STRA": 1, "ORD_CLAS": 4, "ORD_FLOW": 7, "HYBAS_L12": 2121164680, "zone": "Z3" }, "geometry": { "type": "LineString", "coordinates": [ [ 7.918749999999505, 47.045833333332773 ], [ 7.918749999999505, 47.056249999999459 ] ] } },
{ "type": "Feature", "properties": { "HYRIV_ID": 20453708, "NEXT_DOWN": 20453149, "MAIN_RIV": 20323928, "LENGTH_KM": 2.89, "DIST_DN_KM": 1049.4, "DIST_UP_KM": 5.9, "CATCH_SKM": 12.0, "UPLAND_SKM": 12.0, "ENDORHEIC": 0, "DIS_AV_CMS": 0.343, "ORD_STRA": 1, "ORD_CLAS": 3, "ORD_FLOW": 7, "HYBAS_L12": 2121164680, "zone": "Z3" }, "geometry": { "type": "LineString", "coordinates": [ [ 7.920833333332837, 47.033333333332799 ], [ 7.927083333332803, 47.039583333332779 ], [ 7.927083333332803, 47.047916666666147 ], [ 7.918749999999505, 47.056249999999459 ] ] } }
]
}
