{
"type": "FeatureCollection",
"name": "reach_candidates_real",
"crs": { "type": "name", "properties": { "name": "urn:ogc:def:crs:OGC:1.3:CRS84" } },
"features": [
{ "type": "Feature", "properties": { "HYRIV_ID": 20446064, "NEXT_DOWN": 20445973, "LENGTH_KM": 0.87, "UPLAND_SKM": 414.3, "DIS_AV_CMS": 10.997, "HYBAS_L12": 2120499990, "snap_distance_m": 64.813562934112781 }, "geometry": { "type": "LineString", "coordinates": [ [ 7.90208334110692, 47.310416676985575 ], [ 7.897916674434838, 47.314583343654725 ], [ 7.893750007763956, 47.314583343655833 ] ] } },
{ "type": "Feature", "properties": { "HYRIV_ID": 20445973, "NEXT_DOWN": 20445851, "LENGTH_KM": 0.56, "UPLAND_SKM": 10350.9, "DIS_AV_CMS": 270.182, "HYBAS_L12": 2120499010, "snap_distance_m": 139.65631997128298 }, "geometry": { "type": "LineString", "coordinates": [ [ 7.893750007763956, 47.314583343655833 ], [ 7.897916674433677, 47.318750010322802 ] ] } },
{ "type": "Feature", "properties": { "HYRIV_ID": 20446447, "NEXT_DOWN": 20445973, "LENGTH_KM": 3.81, "UPLAND_SKM": 9936.0, "DIS_AV_CMS": 259.202, "HYBAS_L12": 2120499980, "snap_distance_m": 140.6384990752673 }, "geometry": { "type": "LineString", "coordinates": [ [ 7.856250007730315, 47.297916676993374 ], [ 7.868750007739627, 47.310416676994365 ], [ 7.885416674423285, 47.310416676989981 ], [ 7.889583341093036, 47.314583343656935 ], [ 7.893750007763956, 47.314583343655833 ] ] } },
{ "type": "Feature", "properties": { "HYRIV_ID": 20445974, "NEXT_DOWN": 20445851, "LENGTH_KM": 4.04, "UPLAND_SKM": 13.4, "DIS_AV_CMS": 0.315, "HYBAS_L12": 2120499010, "snap_distance_m": 454.26001993086152 }, "geometry": { "type": "LineString", "coordinates": [ [ 7.941666674479523, 47.314583343643093 ], [ 7.931250007802181, 47.314583343645879 ], [ 7.927083341130104, 47.318750010315092 ], [ 7.906250007775593, 47.318750010320592 ], [ 7.902083341105757, 47.314583343653617 ], [ 7.897916674433677, 47.318750010322802 ] ] } },
{ "type": "Feature", "properties": { "HYRIV_ID": 20445851, "NEXT_DOWN": 20445022, "LENGTH_KM": 3.44, "UPLAND_SKM": 10369.2, "DIS_AV_CMS": 270.4, "HYBAS_L12": 2120499010, "snap_distance_m": 561.27946062312185 }, "geometry": { "type": "LineString", "coordinates": [ [ 7.897916674433677, 47.318750010322802 ], [ 7.897916674430181, 47.331250010327011 ], [ 7.906250007769747, 47.339583343660934 ], [ 7.906250007767407, 47.347916676997066 ] ] } },
{ "type": "Feature", "properties": { "HYRIV_ID": 20446568, "NEXT_DOWN": 20446064, "LENGTH_KM": 3.08, "UPLAND_SKM": 373.6, "DIS_AV_CMS": 10.028, "HYBAS_L12": 2120499990, "snap_distance_m": 643.48872259768609 }, "geometry": { "type": "LineString", "coordinates": [ [ 7.92708334113711, 47.293750010306589 ], [ 7.922916674465028, 47.297916676975731 ], [ 7.922916674463866, 47.302083343643851 ], [ 7.918750007791822, 47.30625001031305 ], [ 7.910416674449996, 47.306250010315217 ], [ 7.906250007777923, 47.310416676984453 ], [ 7.90208334110692, 47.310416676985575 ] ] } },
{ "type": "Feature", "properties": { "HYRIV_ID": 20447392, "NEXT_DOWN": 20446064, "LENGTH_KM": 5.68, "UPLAND_SKM": 40.1, "DIS_AV_CMS": 0.958, "HYBAS_L12": 2120499990, "snap_distance_m": 643.48872259768609 }, "geometry": { "type": "LineString", "coordinates": [ [ 7.893750007777859, 47.264583343638762 ], [ 7.902083341117362, 47.272916676972756 ], [ 7.902083341116207, 47.277083343640868 ], [ 7.90625000778605, 47.281250010307843 ], [ 7.906250007782572, 47.293750010312095 ], [ 7.897916674438335, 47.302083343650459 ], [ 7.897916674437171, 47.30625001031855 ], [ 7.90208334110692, 47.310416676985575 ] ] } }
]
}
