{
"type": "FeatureCollection",
"name": "shared_trunk_reaches",
"crs": { "type": "name", "properties": { "name": "urn:ogc:def:crs:OGC:1.3:CRS84" } },
"features": [
{ "type": "Feature", "properties": { "HYRIV_ID": 20446064, "NEXT_DOWN": 20445973, "MAIN_RIV": 20323928, "LENGTH_KM": 0.87, "DIST_DN_KM": 1010.7, "DIST_UP_KM": 44.6, "CATCH_SKM": 0.58, "UPLAND_SKM": 414.3, "ENDORHEIC": 0, "DIS_AV_CMS": 10.997, "ORD_STRA": 4, "ORD_CLAS": 3, "ORD_FLOW": 5, "HYBAS_L12": 2120499990 }, "geometry": { "type": "LineString", "coordinates": [ [ 7.902083333332769, 47.310416666666136 ], [ 7.897916666666106, 47.314583333332784 ], [ 7.893749999999471, 47.314583333332784 ] ] } },
{ "type": "Feature", "properties": { "HYRIV_ID": 20446568, "NEXT_DOWN": 20446064, "MAIN_RIV": 20323928, "LENGTH_KM": 3.08, "DIST_DN_KM": 1011.5, "DIST_UP_KM": 43.7, "CATCH_SKM": 5.09, "UPLAND_SKM": 373.6, "ENDORHEIC": 0, "DIS_AV_CMS": 10.028, "ORD_STRA": 4, "ORD_CLAS": 3, "ORD_FLOW": 5, "HYBAS_L12": 2120499990 }, "geometry": { "type": "LineString", "coordinates": [ [ 7.927083333332803, 47.293749999999456 ], [ 7.92291666666614, 47.297916666666119 ], [ 7.92291666666614, 47.302083333332767 ], [ 7.918749999999505, 47.30624999999943 ], [ 7.91041666666618, 47.30624999999943 ], [ 7.906249999999517, 47.310416666666136 ], [ 7.902083333332769, 47.310416666666136 ] ] } },
{ "type": "Feature", "properties": { "HYRIV_ID": 20446569, "NEXT_DOWN": 20446568, "MAIN_RIV": 20323928, "LENGTH_KM": 2.29, "DIST_DN_KM": 1014.6, "DIST_UP_KM": 4.9, "CATCH_SKM": 6.41, "UPLAND_SKM": 6.4, "ENDORHEIC": 0, "DIS_AV_CMS": 0.154, "ORD_STRA": 1, "ORD_CLAS": 4, "ORD_FLOW": 7, "HYBAS_L12": 2120499990 }, "geometry": { "type": "LineString", "coordinates": [ [ 7.954166666666168, 47.297916666666119 ], [ 7.94374999999954, 47.297916666666119 ], [ 7.939583333332877, 47.293749999999456 ], [ 7.927083333332803, 47.293749999999456 ] ] } },
{ "type": "Feature", "properties": { "HYRIV_ID": 20447836, "NEXT_DOWN": 20446568, "MAIN_RIV": 20323928, "LENGTH_KM": 6.09, "DIST_DN_KM": 1014.8, "DIST_UP_KM": 40.4, "CATCH_SKM": 20.97, "UPLAND_SKM": 362.1, "ENDORHEIC": 0, "DIS_AV_CMS": 9.761, "ORD_STRA": 4, "ORD_CLAS": 3, "ORD_FLOW": 6, "HYBAS_L12": 2120499990 }, "geometry": { "type": "LineString", "coordinates": [ [ 7.960416666666163, 47.247916666666121 ], [ 7.960416666666163, 47.252083333332784 ], [ 7.9562499999995, 47.256249999999447 ], [ 7.9562499999995, 47.268749999999464 ], [ 7.94374999999954, 47.281249999999481 ], [ 7.939583333332877, 47.281249999999481 ], [ 7.927083333332803, 47.293749999999456 ] ] } },
{ "type": "Feature", "properties": { "HYRIV_ID": 20447837, "NEXT_DOWN": 20447836, "MAIN_RIV": 20323928, "LENGTH_KM": 1.98, "DIST_DN_KM": 1020.7, "DIST_UP_KM": 4.0, "CATCH_SKM": 6.26, "UPLAND_SKM": 6.3, "ENDORHEIC": 0, "DIS_AV_CMS": 0.156, "ORD_STRA": 1, "ORD_CLAS": 4, "ORD_FLOW": 7, "HYBAS_L12": 2120499990 }, "geometry": { "type": "LineString", "coordinates": [ [ 7.983333333332865, 47.252083333332784 ], [ 7.972916666666151, 47.252083333332784 ], [ 7.968749999999488, 47.247916666666121 ], [ 7.960416666666163, 47.247916666666121 ] ] } },
{ "type": "Feature", "properties": { "HYRIV_ID": 20448315, "NEXT_DOWN": 20447836, "MAIN_RIV": 20323928, "LENGTH_KM": 2.05, "DIST_DN_KM": 1020.8, "DIST_UP_KM": 34.5, "CATCH_SKM": 8.31, "UPLAND_SKM": 334.9, "ENDORHEIC": 0, "DIS_AV_CMS": 9.108, "ORD_STRA": 4, "ORD_CLAS": 3, "ORD_FLOW": 6, "HYBAS_L12": 2120499990 }, "geometry": { "type": "LineString", "coordinates": [ [ 7.968749999999488, 47.231249999999456 ], [ 7.960416666666163, 47.239583333332767 ], [ 7.960416666666163, 47.247916666666121 ] ] } },
{ "type": "Feature", "properties": { "HYRIV_ID": 20448564, "NEXT_DOWN": 20448315, "MAIN_RIV": 20323928, "LENGTH_KM": 1.12, "DIST_DN_KM": 1023.0, "DIST_UP_KM": 32.3, "CATCH_SKM": 0.88, "UPLAND_SKM": 314.6, "ENDORHEIC": 0, "DIS_AV_CMS": 8.607, "ORD_STRA": 4, "ORD_CLAS": 3, "ORD_FLOW": 6, "HYBAS_L12": 2120499990 }, "geometry": { "type": "LineString", "coordinates": [ [ 7.977083333332786, 47.22291666666613 ], [ 7.968749999999488, 47.231249999999456 ] ] } },
{ "type": "Feature", "properties": { "HYRIV_ID": 20448565, "NEXT_DOWN": 20448564, "MAIN_RIV": 20323928, "LENGTH_KM": 1.12, "DIST_DN_KM": 1024.1, "DIST_UP_KM": 9.2, "CATCH_SKM": 1.02, "UPLAND_SKM": 24.9, "ENDORHEIC": 0, "DIS_AV_CMS": 0.649, "ORD_STRA": 2, "ORD_CLAS": 4, "ORD_FLOW": 7, "HYBAS_L12": 2120499990 }, "geometry": { "type": "LineString", "coordinates": [ [ 7.985416666666197, 47.22291666666613 ], [ 7.981249999999449, 47.227083333332793 ], [ 7.977083333332786, 47.22291666666613 ] ] } },
{ "type": "Feature", "properties": { "HYRIV_ID": 20448566, "NEXT_DOWN": 20448565, "MAIN_RIV": 20323928, "LENGTH_KM": 1.35, "DIST_DN_KM": 1025.0, "DIST_UP_KM": 3.8, "CATCH_SKM": 5.54, "UPLAND_SKM": 5.5, "ENDORHEIC": 0, "DIS_AV_CMS": 0.142, "ORD_STRA": 1, "ORD_CLAS": 5, "ORD_FLOW": 7, "HYBAS_L12": 2120499990 }, "geometry": { "type": "LineString", "coordinates": [ [ 7.999999999999517, 47.227083333332793 ], [ 7.993749999999523, 47.227083333332793 ], [ 7.98958333333286, 47.22291666666613 ], [ 7.985416666666197, 47.22291666666613 ] ] } },
{ "type": "Feature", "properties": { "HYRIV_ID": 20448826, "NEXT_DOWN": 20448315, "MAIN_RIV": 20323928, "LENGTH_KM": 3.15, "DIST_DN_KM": 1023.0, "DIST_UP_KM": 5.7, "CATCH_SKM": 11.96, "UPLAND_SKM": 12.0, "ENDORHEIC": 0, "DIS_AV_CMS": 0.299, "ORD_STRA": 1, "ORD_CLAS": 4, "ORD_FLOW": 7, "HYBAS_L12": 2120499990 }, "geometry": { "type": "LineString", "coordinates": [ [ 7.941666666666208, 47.212499999999444 ], [ 7.952083333332837, 47.22291666666613 ], [ 7.960416666666163, 47.22291666666613 ], [ 7.968749999999488, 47.231249999999456 ] ] } },
{ "type": "Feature", "properties": { "HYRIV_ID": 20449308, "NEXT_DOWN": 20448564, "MAIN_RIV": 20323928, "LENGTH_KM": 2.88, "DIST_DN_KM": 1024.0, "DIST_UP_KM": 31.3, "CATCH_SKM": 5.4, "UPLAND_SKM": 288.8, "ENDORHEIC": 0, "DIS_AV_CMS": 7.938, "ORD_STRA": 4, "ORD_CLAS": 3, "ORD_FLOW": 6, "HYBAS_L12": 2120499990 }, "geometry": { "type": "LineString", "coordinates": [ [ 7.972916666666151, 47.197916666666096 ], [ 7.972916666666151, 47.206249999999464 ], [ 7.977083333332786, 47.210416666666113 ], [ 7.977083333332786, 47.22291666666613 ] ] } },
{ "type": "Feature", "properties": { "HYRIV_ID": 20449309, "NEXT_DOWN": 20448565, "MAIN_RIV": 20323928, "LENGTH_KM": 6.38, "DIST_DN_KM": 1025.1, "DIST_UP_KM": 8.2, "CATCH_SKM": 18.37, "UPLAND_SKM": 18.4, "ENDORHEIC": 0, "DIS_AV_CMS": 0.482, "ORD_STRA": 1, "ORD_CLAS": 4, "ORD_FLOW": 7, "HYBAS_L12": 2120499990 }, "geometry": { "type": "LineString", "coordinates": [ [ 8.045833333332837, 47.195833333332779 ], [ 8.03541666666618, 47.206249999999464 ], [ 8.010416666666146, 47.206249999999464 ], [ 8.006249999999483, 47.210416666666113 ], [ 7.993749999999523, 47.210416666666113 ], [ 7.985416666666197, 47.218749999999439 ], [ 7.985416666666197, 47.22291666666613 ] ] } },
{ "type": "Feature", "properties": { "HYRIV_ID": 20449904, "NEXT_DOWN": 20449308, "MAIN_RIV": 20323928, "LENGTH_KM": 5.99, "DIST_DN_KM": 1027.0, "DIST_UP_KM": 8.3, "CATCH_SKM": 21.01, "UPLAND_SKM": 21.0, "ENDORHEIC": 0, "DIS_AV_CMS": 0.537, "ORD_STRA": 1, "ORD_CLAS": 4, "ORD_FLOW": 7, "HYBAS_L12": 2121164680 }, "geometry": { "type": "LineString", "coordinates": [ [ 7.924999999999471, 47.185416666666121 ], [ 7.931249999999466, 47.185416666666121 ], [ 7.935416666666214, 47.18124999999943 ], [ 7.94374999999954, 47.18124999999943 ], [ 7.947916666666202, 47.17708333333281 ], [ 7.964583333332826, 47.17708333333281 ], [ 7.968749999999488, 47.18124999999943 ], [ 7.968749999999488, 47.193749999999447 ], [ 7.972916666666151, 47.197916666666096 ] ] } },
{ "type": "Feature", "properties": { "HYRIV_ID": 20449905, "NEXT_DOWN": 20449308, "MAIN_RIV": 20323928, "LENGTH_KM": 2.7, "DIST_DN_KM": 1026.8, "DIST_UP_KM": 28.4, "CATCH_SKM": 6.13, "UPLAND_SKM": 262.4, "ENDORHEIC": 0, "DIS_AV_CMS": 7.268, "ORD_STRA": 4, "ORD_CLAS": 3, "ORD_FLOW": 6, "HYBAS_L12": 2121164680 }, "geometry": { "type": "LineString", "coordinates": [ [ 7.98958333333286, 47.17708333333281 ], [ 7.972916666666151, 47.193749999999447 ], [ 7.972916666666151, 47.197916666666096 ] ] } }
]
}
