{
  "type": "FeatureCollection",
  "name": "zones_and_sampling_sites",
  "crs": {
    "type": "name",
    "properties": {
      "name": "urn:ogc:def:crs:OGC:1.3:CRS84"
    }
  },
  "features": [
    {
      "type": "Feature",
      "properties": {
        "feature_type": "zone_reach",
        "zone": "Z1",
        "HYRIV_ID": 20447392,
        "LENGTH_KM": 5.68,
        "UPLAND_SKM": 40.1
      },
      "geometry": {
        "type": "LineString",
        "coordinates": [
          [
            7.893749999999471,
            47.2645833333328
          ],
          [
            7.902083333332769,
            47.27291666666613
          ],
          [
            7.902083333332769,
            47.277083333332776
          ],
          [
            7.906249999999517,
            47.28124999999948
          ],
          [
            7.906249999999517,
            47.293749999999456
          ],
          [
            7.897916666666106,
            47.30208333333277
          ],
          [
            7.897916666666106,
            47.30624999999943
          ],
          [
            7.902083333332769,
            47.310416666666136
          ]
        ]
      }
    },
    {
      "type": "Feature",
      "properties": {
        "feature_type": "zone_reach",
        "zone": "Z1",
        "HYRIV_ID": 20447619,
        "LENGTH_KM": 2.22,
        "UPLAND_SKM": 8.0
      },
      "geometry": {
        "type": "LineString",
        "coordinates": [
          [
            7.916666666666174,
            47.25624999999945
          ],
          [
            7.906249999999517,
            47.25624999999945
          ],
          [
            7.897916666666106,
            47.2645833333328
          ],
          [
            7.893749999999471,
            47.2645833333328
          ]
        ]
      }
    },
    {
      "type": "Feature",
      "properties": {
        "feature_type": "zone_reach",
        "zone": "Z1",
        "HYRIV_ID": 20448438,
        "LENGTH_KM": 4.5,
        "UPLAND_SKM": 16.5
      },
      "geometry": {
        "type": "LineString",
        "coordinates": [
          [
            7.897916666666106,
            47.22499999999946
          ],
          [
            7.897916666666106,
            47.231249999999456
          ],
          [
            7.893749999999471,
            47.235416666666104
          ],
          [
            7.893749999999471,
            47.2645833333328
          ]
        ]
      }
    },
    {
      "type": "Feature",
      "properties": {
        "feature_type": "zone_reach",
        "zone": "Z2",
        "HYRIV_ID": 20450127,
        "LENGTH_KM": 1.12,
        "UPLAND_SKM": 169.5
      },
      "geometry": {
        "type": "LineString",
        "coordinates": [
          [
            7.997916666666185,
            47.168749999999456
          ],
          [
            7.98958333333286,
            47.17708333333281
          ]
        ]
      }
    },
    {
      "type": "Feature",
      "properties": {
        "feature_type": "zone_reach",
        "zone": "Z2",
        "HYRIV_ID": 20450128,
        "LENGTH_KM": 6.74,
        "UPLAND_SKM": 24.7
      },
      "geometry": {
        "type": "LineString",
        "coordinates": [
          [
            8.070833333332786,
            47.172916666666104
          ],
          [
            8.052083333332831,
            47.172916666666104
          ],
          [
            8.047916666666168,
            47.17708333333281
          ],
          [
            8.043749999999505,
            47.17708333333281
          ],
          [
            8.039583333332843,
            47.18124999999943
          ],
          [
            8.031249999999432,
            47.172916666666104
          ],
          [
            8.00208333333282,
            47.172916666666104
          ],
          [
            7.997916666666185,
            47.168749999999456
          ]
        ]
      }
    },
    {
      "type": "Feature",
      "properties": {
        "feature_type": "zone_reach",
        "zone": "Z2",
        "HYRIV_ID": 20450449,
        "LENGTH_KM": 1.58,
        "UPLAND_SKM": 144.1
      },
      "geometry": {
        "type": "LineString",
        "coordinates": [
          [
            8.006249999999483,
            47.15624999999948
          ],
          [
            7.997916666666185,
            47.16458333333279
          ],
          [
            7.997916666666185,
            47.168749999999456
          ]
        ]
      }
    },
    {
      "type": "Feature",
      "properties": {
        "feature_type": "zone_reach",
        "zone": "Z2",
        "HYRIV_ID": 20451051,
        "LENGTH_KM": 4.69,
        "UPLAND_SKM": 51.3
      },
      "geometry": {
        "type": "LineString",
        "coordinates": [
          [
            8.052083333332831,
            47.13541666666614
          ],
          [
            8.043749999999505,
            47.13541666666614
          ],
          [
            8.039583333332843,
            47.1395833333328
          ],
          [
            8.03541666666618,
            47.1395833333328
          ],
          [
            8.027083333332797,
            47.14791666666611
          ],
          [
            8.018749999999471,
            47.14791666666611
          ],
          [
            8.010416666666146,
            47.15624999999948
          ],
          [
            8.006249999999483,
            47.15624999999948
          ]
        ]
      }
    },
    {
      "type": "Feature",
      "properties": {
        "feature_type": "zone_reach",
        "zone": "Z2",
        "HYRIV_ID": 20451052,
        "LENGTH_KM": 1.59,
        "UPLAND_SKM": 6.1
      },
      "geometry": {
        "type": "LineString",
        "coordinates": [
          [
            8.066666666666208,
            47.14374999999945
          ],
          [
            8.060416666666214,
            47.14374999999945
          ],
          [
            8.052083333332831,
            47.13541666666614
          ]
        ]
      }
    },
    {
      "type": "Feature",
      "properties": {
        "feature_type": "zone_reach",
        "zone": "Z2",
        "HYRIV_ID": 20451292,
        "LENGTH_KM": 3.44,
        "UPLAND_SKM": 90.0
      },
      "geometry": {
        "type": "LineString",
        "coordinates": [
          [
            7.997916666666185,
            47.127083333332784
          ],
          [
            7.997916666666185,
            47.1395833333328
          ],
          [
            8.00208333333282,
            47.14374999999945
          ],
          [
            8.00208333333282,
            47.14791666666611
          ],
          [
            8.006249999999483,
            47.15208333333282
          ],
          [
            8.006249999999483,
            47.15624999999948
          ]
        ]
      }
    },
    {
      "type": "Feature",
      "properties": {
        "feature_type": "zone_reach",
        "zone": "Z2",
        "HYRIV_ID": 20451412,
        "LENGTH_KM": 0.56,
        "UPLAND_SKM": 42.4
      },
      "geometry": {
        "type": "LineString",
        "coordinates": [
          [
            8.00208333333282,
            47.12291666666612
          ],
          [
            7.997916666666185,
            47.127083333332784
          ]
        ]
      }
    },
    {
      "type": "Feature",
      "properties": {
        "feature_type": "zone_reach",
        "zone": "Z2",
        "HYRIV_ID": 20451628,
        "LENGTH_KM": 1.44,
        "UPLAND_SKM": 26.5
      },
      "geometry": {
        "type": "LineString",
        "coordinates": [
          [
            8.014583333332808,
            47.11458333333277
          ],
          [
            8.010416666666146,
            47.11458333333277
          ],
          [
            8.00208333333282,
            47.12291666666612
          ]
        ]
      }
    },
    {
      "type": "Feature",
      "properties": {
        "feature_type": "zone_reach",
        "zone": "Z2",
        "HYRIV_ID": 20451629,
        "LENGTH_KM": 3.12,
        "UPLAND_SKM": 33.8
      },
      "geometry": {
        "type": "LineString",
        "coordinates": [
          [
            8.077083333332865,
            47.11458333333277
          ],
          [
            8.072916666666202,
            47.11458333333277
          ],
          [
            8.052083333332831,
            47.13541666666614
          ]
        ]
      }
    },
    {
      "type": "Feature",
      "properties": {
        "feature_type": "zone_reach",
        "zone": "Z2",
        "HYRIV_ID": 20451630,
        "LENGTH_KM": 0.47,
        "UPLAND_SKM": 4.8
      },
      "geometry": {
        "type": "LineString",
        "coordinates": [
          [
            8.083333333332831,
            47.11458333333277
          ],
          [
            8.077083333332865,
            47.11458333333277
          ]
        ]
      }
    },
    {
      "type": "Feature",
      "properties": {
        "feature_type": "zone_reach",
        "zone": "Z2",
        "HYRIV_ID": 20451759,
        "LENGTH_KM": 1.72,
        "UPLAND_SKM": 6.0
      },
      "geometry": {
        "type": "LineString",
        "coordinates": [
          [
            7.954166666666168,
            47.12083333333279
          ],
          [
            7.960416666666163,
            47.11458333333277
          ],
          [
            7.964583333332826,
            47.11458333333277
          ],
          [
            7.968749999999488,
            47.110416666666104
          ]
        ]
      }
    },
    {
      "type": "Feature",
      "properties": {
        "feature_type": "zone_reach",
        "zone": "Z2",
        "HYRIV_ID": 20451760,
        "LENGTH_KM": 3.19,
        "UPLAND_SKM": 41.1
      },
      "geometry": {
        "type": "LineString",
        "coordinates": [
          [
            7.968749999999488,
            47.110416666666104
          ],
          [
            7.977083333332786,
            47.11874999999946
          ],
          [
            7.981249999999449,
            47.11874999999946
          ],
          [
            7.985416666666197,
            47.12291666666612
          ],
          [
            7.993749999999523,
            47.12291666666612
          ],
          [
            7.997916666666185,
            47.127083333332784
          ]
        ]
      }
    },
    {
      "type": "Feature",
      "properties": {
        "feature_type": "zone_reach",
        "zone": "Z2",
        "HYRIV_ID": 20451885,
        "LENGTH_KM": 2.66,
        "UPLAND_SKM": 8.6
      },
      "geometry": {
        "type": "LineString",
        "coordinates": [
          [
            8.041666666666174,
            47.104166666666124
          ],
          [
            8.031249999999432,
            47.11458333333277
          ],
          [
            8.014583333332808,
            47.11458333333277
          ]
        ]
      }
    },
    {
      "type": "Feature",
      "properties": {
        "feature_type": "zone_reach",
        "zone": "Z2",
        "HYRIV_ID": 20452003,
        "LENGTH_KM": 5.66,
        "UPLAND_SKM": 18.0
      },
      "geometry": {
        "type": "LineString",
        "coordinates": [
          [
            8.12916666666618,
            47.110416666666104
          ],
          [
            8.11458333333286,
            47.110416666666104
          ],
          [
            8.110416666666111,
            47.10624999999944
          ],
          [
            8.106249999999449,
            47.10624999999944
          ],
          [
            8.102083333332814,
            47.10208333333279
          ],
          [
            8.097916666666151,
            47.10624999999944
          ],
          [
            8.093749999999488,
            47.10624999999944
          ],
          [
            8.089583333332826,
            47.10208333333279
          ],
          [
            8.077083333332865,
            47.11458333333277
          ]
        ]
      }
    },
    {
      "type": "Feature",
      "properties": {
        "feature_type": "zone_reach",
        "zone": "Z2",
        "HYRIV_ID": 20452104,
        "LENGTH_KM": 0.79,
        "UPLAND_SKM": 4.2
      },
      "geometry": {
        "type": "LineString",
        "coordinates": [
          [
            7.954166666666168,
            47.09791666666613
          ],
          [
            7.964583333332826,
            47.09791666666613
          ]
        ]
      }
    },
    {
      "type": "Feature",
      "properties": {
        "feature_type": "zone_reach",
        "zone": "Z2",
        "HYRIV_ID": 20452105,
        "LENGTH_KM": 1.49,
        "UPLAND_SKM": 28.8
      },
      "geometry": {
        "type": "LineString",
        "coordinates": [
          [
            7.964583333332826,
            47.09791666666613
          ],
          [
            7.964583333332826,
            47.10624999999944
          ],
          [
            7.968749999999488,
            47.110416666666104
          ]
        ]
      }
    },
    {
      "type": "Feature",
      "properties": {
        "feature_type": "zone_reach",
        "zone": "Z2",
        "HYRIV_ID": 20452106,
        "LENGTH_KM": 1.85,
        "UPLAND_SKM": 16.2
      },
      "geometry": {
        "type": "LineString",
        "coordinates": [
          [
            8.014583333332808,
            47.09791666666613
          ],
          [
            8.014583333332808,
            47.11458333333277
          ]
        ]
      }
    },
    {
      "type": "Feature",
      "properties": {
        "feature_type": "zone_reach",
        "zone": "Z2",
        "HYRIV_ID": 20452213,
        "LENGTH_KM": 0.69,
        "UPLAND_SKM": 4.4
      },
      "geometry": {
        "type": "LineString",
        "coordinates": [
          [
            8.014583333332808,
            47.09166666666611
          ],
          [
            8.014583333332808,
            47.09791666666613
          ]
        ]
      }
    },
    {
      "type": "Feature",
      "properties": {
        "feature_type": "zone_reach",
        "zone": "Z2",
        "HYRIV_ID": 20452353,
        "LENGTH_KM": 2.54,
        "UPLAND_SKM": 8.6
      },
      "geometry": {
        "type": "LineString",
        "coordinates": [
          [
            8.041666666666174,
            47.089583333332776
          ],
          [
            8.022916666666134,
            47.089583333332776
          ],
          [
            8.014583333332808,
            47.09791666666613
          ]
        ]
      }
    },
    {
      "type": "Feature",
      "properties": {
        "feature_type": "zone_reach",
        "zone": "Z2",
        "HYRIV_ID": 20452880,
        "LENGTH_KM": 6.74,
        "UPLAND_SKM": 15.6
      },
      "geometry": {
        "type": "LineString",
        "coordinates": [
          [
            7.981249999999449,
            47.0666666666661
          ],
          [
            7.981249999999449,
            47.0770833333328
          ],
          [
            7.985416666666197,
            47.08124999999945
          ],
          [
            7.985416666666197,
            47.09791666666613
          ],
          [
            7.997916666666185,
            47.110416666666104
          ],
          [
            7.997916666666185,
            47.11458333333277
          ],
          [
            8.00208333333282,
            47.11874999999946
          ],
          [
            8.00208333333282,
            47.12291666666612
          ]
        ]
      }
    },
    {
      "type": "Feature",
      "properties": {
        "feature_type": "zone_reach",
        "zone": "Z2",
        "HYRIV_ID": 20453709,
        "LENGTH_KM": 7.72,
        "UPLAND_SKM": 22.7
      },
      "geometry": {
        "type": "LineString",
        "coordinates": [
          [
            7.949999999999505,
            47.0333333333328
          ],
          [
            7.9562499999995,
            47.03958333333278
          ],
          [
            7.9562499999995,
            47.04791666666615
          ],
          [
            7.952083333332837,
            47.05208333333281
          ],
          [
            7.952083333332837,
            47.0770833333328
          ],
          [
            7.9562499999995,
            47.08124999999945
          ],
          [
            7.9562499999995,
            47.08541666666611
          ],
          [
            7.964583333332826,
            47.093749999999424
          ],
          [
            7.964583333332826,
            47.09791666666613
          ]
        ]
      }
    },
    {
      "type": "Feature",
      "properties": {
        "feature_type": "zone_reach",
        "zone": "Z3",
        "HYRIV_ID": 20451169,
        "LENGTH_KM": 10.54,
        "UPLAND_SKM": 86.8
      },
      "geometry": {
        "type": "LineString",
        "coordinates": [
          [
            7.91041666666618,
            47.13124999999943
          ],
          [
            7.914583333332843,
            47.13541666666614
          ],
          [
            7.918749999999505,
            47.13541666666614
          ],
          [
            7.92291666666614,
            47.1395833333328
          ],
          [
            7.939583333332877,
            47.1395833333328
          ],
          [
            7.94374999999954,
            47.13541666666614
          ],
          [
            7.947916666666202,
            47.1395833333328
          ],
          [
            7.952083333332837,
            47.1395833333328
          ],
          [
            7.9562499999995,
            47.13541666666614
          ],
          [
            7.960416666666163,
            47.1395833333328
          ],
          [
            7.964583333332826,
            47.1395833333328
          ],
          [
            7.968749999999488,
            47.14374999999945
          ],
          [
            7.968749999999488,
            47.15208333333282
          ],
          [
            7.972916666666151,
            47.15624999999948
          ],
          [
            7.977083333332786,
            47.15624999999948
          ],
          [
            7.981249999999449,
            47.16041666666613
          ],
          [
            7.981249999999449,
            47.168749999999456
          ],
          [
            7.98958333333286,
            47.17708333333281
          ]
        ]
      }
    },
    {
      "type": "Feature",
      "properties": {
        "feature_type": "zone_reach",
        "zone": "Z3",
        "HYRIV_ID": 20451289,
        "LENGTH_KM": 0.47,
        "UPLAND_SKM": 5.1
      },
      "geometry": {
        "type": "LineString",
        "coordinates": [
          [
            7.879166666666151,
            47.127083333332784
          ],
          [
            7.885416666666146,
            47.127083333332784
          ]
        ]
      }
    },
    {
      "type": "Feature",
      "properties": {
        "feature_type": "zone_reach",
        "zone": "Z3",
        "HYRIV_ID": 20451290,
        "LENGTH_KM": 1.25,
        "UPLAND_SKM": 6.1
      },
      "geometry": {
        "type": "LineString",
        "coordinates": [
          [
            7.881249999999483,
            47.13749999999947
          ],
          [
            7.881249999999483,
            47.13124999999943
          ],
          [
            7.885416666666146,
            47.127083333332784
          ]
        ]
      }
    },
    {
      "type": "Feature",
      "properties": {
        "feature_type": "zone_reach",
        "zone": "Z3",
        "HYRIV_ID": 20451291,
        "LENGTH_KM": 2.14,
        "UPLAND_SKM": 14.8
      },
      "geometry": {
        "type": "LineString",
        "coordinates": [
          [
            7.885416666666146,
            47.127083333332784
          ],
          [
            7.906249999999517,
            47.127083333332784
          ],
          [
            7.91041666666618,
            47.13124999999943
          ]
        ]
      }
    },
    {
      "type": "Feature",
      "properties": {
        "feature_type": "zone_reach",
        "zone": "Z3",
        "HYRIV_ID": 20451411,
        "LENGTH_KM": 1.02,
        "UPLAND_SKM": 50.0
      },
      "geometry": {
        "type": "LineString",
        "coordinates": [
          [
            7.914583333332843,
            47.12291666666612
          ],
          [
            7.91041666666618,
            47.127083333332784
          ],
          [
            7.91041666666618,
            47.13124999999943
          ]
        ]
      }
    },
    {
      "type": "Feature",
      "properties": {
        "feature_type": "zone_reach",
        "zone": "Z3",
        "HYRIV_ID": 20451758,
        "LENGTH_KM": 1.82,
        "UPLAND_SKM": 8.0
      },
      "geometry": {
        "type": "LineString",
        "coordinates": [
          [
            7.906249999999517,
            47.10833333333277
          ],
          [
            7.906249999999517,
            47.11458333333277
          ],
          [
            7.914583333332843,
            47.12291666666612
          ]
        ]
      }
    },
    {
      "type": "Feature",
      "properties": {
        "feature_type": "zone_reach",
        "zone": "Z3",
        "HYRIV_ID": 20452467,
        "LENGTH_KM": 4.56,
        "UPLAND_SKM": 40.5
      },
      "geometry": {
        "type": "LineString",
        "coordinates": [
          [
            7.914583333332843,
            47.08541666666611
          ],
          [
            7.914583333332843,
            47.093749999999424
          ],
          [
            7.918749999999505,
            47.09791666666613
          ],
          [
            7.918749999999505,
            47.110416666666104
          ],
          [
            7.92291666666614,
            47.11458333333277
          ],
          [
            7.914583333332843,
            47.12291666666612
          ]
        ]
      }
    },
    {
      "type": "Feature",
      "properties": {
        "feature_type": "zone_reach",
        "zone": "Z3",
        "HYRIV_ID": 20452782,
        "LENGTH_KM": 2.59,
        "UPLAND_SKM": 9.8
      },
      "geometry": {
        "type": "LineString",
        "coordinates": [
          [
            7.89166666666614,
            47.07083333333281
          ],
          [
            7.902083333332769,
            47.08124999999945
          ],
          [
            7.91041666666618,
            47.08124999999945
          ],
          [
            7.914583333332843,
            47.08541666666611
          ]
        ]
      }
    },
    {
      "type": "Feature",
      "properties": {
        "feature_type": "zone_reach",
        "zone": "Z3",
        "HYRIV_ID": 20453149,
        "LENGTH_KM": 3.54,
        "UPLAND_SKM": 24.9
      },
      "geometry": {
        "type": "LineString",
        "coordinates": [
          [
            7.918749999999505,
            47.05624999999946
          ],
          [
            7.918749999999505,
            47.06874999999943
          ],
          [
            7.92291666666614,
            47.07291666666614
          ],
          [
            7.918749999999505,
            47.0770833333328
          ],
          [
            7.918749999999505,
            47.08124999999945
          ],
          [
            7.914583333332843,
            47.08541666666611
          ]
        ]
      }
    },
    {
      "type": "Feature",
      "properties": {
        "feature_type": "zone_reach",
        "zone": "Z3",
        "HYRIV_ID": 20453379,
        "LENGTH_KM": 1.16,
        "UPLAND_SKM": 6.4
      },
      "geometry": {
        "type": "LineString",
        "coordinates": [
          [
            7.918749999999505,
            47.04583333333277
          ],
          [
            7.918749999999505,
            47.05624999999946
          ]
        ]
      }
    },
    {
      "type": "Feature",
      "properties": {
        "feature_type": "zone_reach",
        "zone": "Z3",
        "HYRIV_ID": 20453708,
        "LENGTH_KM": 2.89,
        "UPLAND_SKM": 12.0
      },
      "geometry": {
        "type": "LineString",
        "coordinates": [
          [
            7.920833333332837,
            47.0333333333328
          ],
          [
            7.927083333332803,
            47.03958333333278
          ],
          [
            7.927083333332803,
            47.04791666666615
          ],
          [
            7.918749999999505,
            47.05624999999946
          ]
        ]
      }
    },
    {
      "type": "Feature",
      "properties": {
        "feature_type": "shared_trunk",
        "HYRIV_ID": 20446064,
        "LENGTH_KM": 0.87
      },
      "geometry": {
        "type": "LineString",
        "coordinates": [
          [
            7.902083333332769,
            47.310416666666136
          ],
          [
            7.897916666666106,
            47.314583333332784
          ],
          [
            7.893749999999471,
            47.314583333332784
          ]
        ]
      }
    },
    {
      "type": "Feature",
      "properties": {
        "feature_type": "shared_trunk",
        "HYRIV_ID": 20446568,
        "LENGTH_KM": 3.08
      },
      "geometry": {
        "type": "LineString",
        "coordinates": [
          [
            7.927083333332803,
            47.293749999999456
          ],
          [
            7.92291666666614,
            47.29791666666612
          ],
          [
            7.92291666666614,
            47.30208333333277
          ],
          [
            7.9187499999995055,
            47.30624999999943
          ],
          [
            7.91041666666618,
            47.30624999999943
          ],
          [
            7.906249999999517,
            47.310416666666136
          ],
          [
            7.902083333332769,
            47.310416666666136
          ]
        ]
      }
    },
    {
      "type": "Feature",
      "properties": {
        "feature_type": "shared_trunk",
        "HYRIV_ID": 20447836,
        "LENGTH_KM": 6.09
      },
      "geometry": {
        "type": "LineString",
        "coordinates": [
          [
            7.960416666666163,
            47.24791666666612
          ],
          [
            7.960416666666163,
            47.252083333332784
          ],
          [
            7.9562499999995,
            47.25624999999945
          ],
          [
            7.9562499999995,
            47.268749999999464
          ],
          [
            7.94374999999954,
            47.28124999999948
          ],
          [
            7.939583333332877,
            47.28124999999948
          ],
          [
            7.927083333332803,
            47.293749999999456
          ]
        ]
      }
    },
    {
      "type": "Feature",
      "properties": {
        "feature_type": "shared_trunk",
        "HYRIV_ID": 20448315,
        "LENGTH_KM": 2.05
      },
      "geometry": {
        "type": "LineString",
        "coordinates": [
          [
            7.968749999999488,
            47.231249999999456
          ],
          [
            7.960416666666163,
            47.23958333333277
          ],
          [
            7.960416666666163,
            47.24791666666612
          ]
        ]
      }
    },
    {
      "type": "Feature",
      "properties": {
        "feature_type": "shared_trunk",
        "HYRIV_ID": 20448564,
        "LENGTH_KM": 1.12
      },
      "geometry": {
        "type": "LineString",
        "coordinates": [
          [
            7.977083333332786,
            47.22291666666613
          ],
          [
            7.968749999999488,
            47.231249999999456
          ]
        ]
      }
    },
    {
      "type": "Feature",
      "properties": {
        "feature_type": "shared_trunk",
        "HYRIV_ID": 20449308,
        "LENGTH_KM": 2.88
      },
      "geometry": {
        "type": "LineString",
        "coordinates": [
          [
            7.972916666666151,
            47.197916666666096
          ],
          [
            7.972916666666151,
            47.206249999999464
          ],
          [
            7.977083333332786,
            47.21041666666611
          ],
          [
            7.977083333332786,
            47.22291666666613
          ]
        ]
      }
    },
    {
      "type": "Feature",
      "properties": {
        "feature_type": "shared_trunk",
        "HYRIV_ID": 20449905,
        "LENGTH_KM": 2.7
      },
      "geometry": {
        "type": "LineString",
        "coordinates": [
          [
            7.98958333333286,
            47.17708333333281
          ],
          [
            7.972916666666151,
            47.19374999999945
          ],
          [
            7.972916666666151,
            47.197916666666096
          ]
        ]
      }
    },
    {
      "type": "Feature",
      "properties": {
        "feature_type": "convergence",
        "name": "Z2/Z3 convergence",
        "HYRIV_ID": 20449905
      },
      "geometry": {
        "type": "Point",
        "coordinates": [
          7.979776860872037,
          47.18688980579359
        ]
      }
    },
    {
      "type": "Feature",
      "properties": {
        "site": "A",
        "role": "Reference site (positive detection)",
        "HYRIV_ID": 20446064,
        "zone": "Downstream of all zones",
        "network_dist_to_a_km": 0.0,
        "old_midpoint_proxy_dist_to_a_km": 0.0,
        "network_dist_to_conv_km": null,
        "historical_latitude": 47.31400039098192,
        "historical_longitude": 7.895400745863826,
        "network_latitude": 47.31458336166783,
        "network_longitude": 7.895400748900512,
        "snap_distance_m": 64.81356293400535,
        "selection_reason": "Historical S1 observation represented on HydroRIVERS by its exact projection onto matched Wigger reach 20446064",
        "validation_status": "MATCHED"
      },
      "geometry": {
        "type": "Point",
        "coordinates": [
          7.895400748900512,
          47.31458336166783
        ]
      }
    },
    {
      "type": "Feature",
      "properties": {
        "site": "B",
        "role": "Z2 branch-specific discriminator",
        "HYRIV_ID": 20450127,
        "zone": "Z2",
        "network_dist_to_a_km": 19.22593905163416,
        "old_midpoint_proxy_dist_to_a_km": 18.915,
        "network_dist_to_conv_km": 1.9100000000000001,
        "historical_latitude": null,
        "historical_longitude": null,
        "network_latitude": 47.17291666666613,
        "network_longitude": 7.9937499999995225,
        "snap_distance_m": 0.0,
        "selection_reason": "Z2 root reach (largest UPLAND_SKM in Z2), located upstream of Z2/Z3 convergence",
        "validation_status": "VERIFIED"
      },
      "geometry": {
        "type": "Point",
        "coordinates": [
          7.9937499999995225,
          47.17291666666613
        ]
      }
    },
    {
      "type": "Feature",
      "properties": {
        "site": "C",
        "role": "Z3 branch-specific discriminator",
        "HYRIV_ID": 20451169,
        "zone": "Z3",
        "network_dist_to_a_km": 23.935939051634158,
        "old_midpoint_proxy_dist_to_a_km": 23.624999999999996,
        "network_dist_to_conv_km": 6.619999999999999,
        "historical_latitude": null,
        "historical_longitude": null,
        "network_latitude": 47.13749999999947,
        "network_longitude": 7.958333333332834,
        "snap_distance_m": 0.0,
        "selection_reason": "Z3 root reach (largest UPLAND_SKM in Z3), located upstream of Z2/Z3 convergence",
        "validation_status": "VERIFIED"
      },
      "geometry": {
        "type": "Point",
        "coordinates": [
          7.958333333332834,
          47.13749999999947
        ]
      }
    },
    {
      "type": "Feature",
      "properties": {
        "site": "D",
        "role": "Shared trunk comparator",
        "HYRIV_ID": 20448315,
        "zone": "Shared trunk (Z2+Z3)",
        "network_dist_to_a_km": 10.940939051634162,
        "old_midpoint_proxy_dist_to_a_km": 10.63,
        "network_dist_to_conv_km": 6.375,
        "historical_latitude": null,
        "historical_longitude": null,
        "network_latitude": 47.23836294492106,
        "network_longitude": 7.961637055077872,
        "snap_distance_m": 0.0,
        "selection_reason": "Mid-point of shared trunk between Z2/Z3 convergence and Site A",
        "validation_status": "VERIFIED"
      },
      "geometry": {
        "type": "Point",
        "coordinates": [
          7.961637055077872,
          47.23836294492106
        ]
      }
    }
  ]
}